{"type":"FeatureCollection","features":[{"type":"Feature","properties":{"kod":"RS","ime":"REPUBLIKA SRBIJA"},"geometry":{"type":"Polygon","coordinates":[[[19.661539457681148,46.19005677333858],[19.684465304440845,46.179679471047685],[19.699830453001915,46.18746012616869],[19.717682530465105,46.175980489712295],[19.71794061349136,46.17158191840484],[19.740847227429136,46.1657776543745],[19.75848882872368,46.14787433775527],[19.797299853533318,46.139466315128495],[19.817824758815714,46.12778995611159],[19.853194484694804,46.1497923511251],[19.914864571489904,46.16398513717555],[19.93515003064258,46.17620253466358],[20.016173915223337,46.17665905037773],[20.022971788665426,46.17330725069837],[20.03062991854454,46.14990623352552],[20.037960533687905,46.14446604761407],[20.057110437553828,46.147955397989264],[20.063737443948806,46.14366605815925],[20.09580923729918,46.17724527348449],[20.106014929112213,46.17471961292395],[20.106858567628535,46.16265136141417],[20.13729326335818,46.14422698164555],[20.181831683252938,46.16005798959316],[20.208042273483326,46.14394406064396],[20.210344948344407,46.13545882894461],[20.229829129828776,46.12907085522179],[20.233186514643553,46.12381443542754],[20.248230838899595,46.12983915786056],[20.24955609501223,46.119867606039215],[20.25492757498792,46.11579445944894],[20.264275216725885,46.12635411371468],[20.26367260316132,46.118345391377545],[20.28288747172901,46.11761203619131],[20.26483344033774,46.10847859899817],[20.273182263951682,46.09827920785344],[20.302267321413332,46.08662116266546],[20.309279827711393,46.0721018444851],[20.345872799373044,46.04742895125398],[20.339308339609495,46.04142221104714],[20.340625032507592,46.03627261572235],[20.357708621178535,46.0058533032939],[20.34837671762407,45.99958217210866],[20.40543103342431,45.965242895578584],[20.447306090336962,45.970247544786424],[20.482932085097776,45.95342689591239],[20.501772542191617,45.91066358120952],[20.515816285848345,45.89210796186221],[20.549593437768507,45.89992512687524],[20.546517332784397,45.90591942743386],[20.569302838906413,45.910145978468805],[20.578740464031956,45.88496586037632],[20.57459392500561,45.883991064462094],[20.575213657530735,45.878764337340044],[20.581461433722843,45.86936818784541],[20.594432109390407,45.87171063097671],[20.598889510215898,45.86171684510518],[20.611712157056843,45.86398664822828],[20.660443830401427,45.82915041878882],[20.650703551013965,45.81176324863751],[20.657113708195105,45.80800720525659],[20.66283757387091,45.794118327097394],[20.68143014042961,45.79730941372577],[20.694602363427283,45.7669568946268],[20.690705897514686,45.766297648818856],[20.69292666413274,45.75984958522843],[20.696845049441027,45.760511870908445],[20.700651037820236,45.75056254388625],[20.71814735364423,45.74940021524533],[20.732715277179974,45.75587816282066],[20.77414440417539,45.75453045162049],[20.783502974029435,45.785895644644654],[20.823089661116146,45.77506602162277],[20.815945614855274,45.74926810770509],[20.808163196320404,45.74842143298945],[20.802646525740467,45.73778668965907],[20.798785966157016,45.702182012484975],[20.802463777183895,45.69985553623659],[20.796166463821223,45.68703191442257],[20.802985887807537,45.68201144226464],[20.80003377758499,45.67195133381686],[20.804989575325415,45.657225824162666],[20.788883335620646,45.6455607074479],[20.77929696636814,45.62254973374398],[20.765724193545488,45.61256683425839],[20.772011558242333,45.58285353058006],[20.795323087464762,45.58763946837168],[20.813608309531595,45.56810657308289],[20.81132917280423,45.5658191378585],[20.823211082879844,45.551878605892234],[20.81960936643639,45.55038452638004],[20.832572933749557,45.53589134476967],[20.80708569257706,45.51583752752829],[20.768821074568127,45.50023021950573],[20.776952058783188,45.49058978548507],[20.771043772855005,45.48805813569603],[20.77110670664859,45.479964705812115],[20.833022239166553,45.47996287370338],[20.86615724066766,45.465231942986584],[20.87045612771425,45.455832628833164],[20.878751548443706,45.45461586371856],[20.880827979664048,45.44635102493601],[20.872801728478088,45.44597747318036],[20.875277273486088,45.43897436711841],[20.864618888921367,45.43182405922239],[20.900432016571777,45.41689389229807],[20.920258767870216,45.41724278382851],[20.93557521464439,45.39276204912501],[20.930061819985685,45.39232507483048],[20.931218127623403,45.386809718071916],[20.948379605962412,45.385590862975675],[20.95087719640446,45.374829919549306],[20.960323961128594,45.366759324662574],[20.98172168563565,45.35728634080862],[20.996063828203326,45.34327811252558],[21.00992908085606,45.34127627545393],[21.016567802889856,45.324630835604566],[21.06337401408545,45.331929759177946],[21.061200701384525,45.31586355006849],[21.08098073626336,45.317808006427704],[21.096527415988678,45.29589790923206],[21.144547496283398,45.30485067202637],[21.154201036293514,45.312358805048255],[21.14960324360293,45.31593657208455],[21.16202419756596,45.32509525223216],[21.166607155713457,45.319758689621665],[21.17622307353183,45.32523396781449],[21.183867444887564,45.32072879780377],[21.179931733560828,45.3125697431793],[21.191331178128916,45.28678473738565],[21.20872309375972,45.27527002591734],[21.20283630352645,45.265439078316724],[21.218984469977407,45.25058281249256],[21.223536602132864,45.25293754608175],[21.249189344202637,45.24379588609253],[21.274749350828955,45.22967866085811],[21.292260417803867,45.24241310360515],[21.32620147622195,45.23960013981034],[21.325283362978652,45.236319751212385],[21.339014105558086,45.2356231691357],[21.36001754917546,45.222101833440476],[21.3696342767358,45.226065530606576],[21.395346531387222,45.21878091906631],[21.403433325077884,45.22927054971586],[21.431165266041603,45.21279937335695],[21.43880427774158,45.202798149584346],[21.482973899288773,45.192021260320416],[21.49312329303416,45.17319390647059],[21.51482156452297,45.171154735773804],[21.523524953126334,45.15933413961613],[21.528825621058076,45.14732243893865],[21.52740935431552,45.13787495885414],[21.49579053037588,45.12453654823271],[21.482887047676734,45.12359965384917],[21.471588728387974,45.10992651680442],[21.47023399241442,45.10376638698648],[21.483382759812713,45.09129029341863],[21.44759458901169,45.05759709408706],[21.456050883789327,45.0404095146243],[21.422948938505275,45.03238333206406],[21.42078028252245,45.03649541179067],[21.405660766056826,45.036937177265784],[21.39297208451499,45.02712657325383],[21.37469478980471,45.028255210739],[21.360231267543607,45.02044236754422],[21.377000604225735,45.006721521163556],[21.38682056231357,45.004420966097854],[21.38295490876476,45.001849218091785],[21.388427223002676,44.99805582587465],[21.414646992209573,44.98676231124404],[21.406717092928968,44.97851668575968],[21.438261577784587,44.960478450473],[21.4692538101619,44.9584295209557],[21.546685447216,44.93051774381609],[21.55271083044048,44.923907226277024],[21.549900899386632,44.91859977566136],[21.558240237842238,44.90661786917899],[21.56013075598332,44.88900467098678],[21.51070414792802,44.88004190456212],[21.485279382438456,44.86816333326786],[21.47105004776414,44.87121250608313],[21.463172907840185,44.86743221750759],[21.446850807103196,44.87398934672352],[21.44225943494127,44.866442840365465],[21.418065812785603,44.87327064338314],[21.40588240963128,44.8663342132545],[21.387940666557412,44.869763792157535],[21.38407947460267,44.86534519608554],[21.367059947042616,44.8644869096042],[21.35763265994635,44.85004436774679],[21.3616278050454,44.84063831723285],[21.353071596254775,44.84031874450359],[21.360279265195445,44.83658780971051],[21.35649601247507,44.83167793354138],[21.364169843925822,44.82924733688834],[21.35630172425706,44.82719560389842],[21.358473151916606,44.82161731606566],[21.38229326566666,44.809205701447695],[21.391024754849866,44.78463179737627],[21.39789783819909,44.77858962672435],[21.420893809965204,44.77339017319399],[21.45880630939747,44.776941223984586],[21.504259724562772,44.77112632010124],[21.536961324630838,44.772554088676365],[21.586134761924086,44.759352607695995],[21.61198264505798,44.72499357613232],[21.615455766792156,44.713855034599],[21.61143171463055,44.68776623705108],[21.618171165822893,44.67147562610075],[21.637086903326157,44.65973207370438],[21.689070289854257,44.66526717943253],[21.72877949906881,44.6534865228775],[21.792624544844635,44.66400754638114],[21.813469290302184,44.650750783272244],[21.841975084664522,44.654320369219],[21.893023255839587,44.644985775999],[21.917419520151398,44.64747005677176],[21.950718099096438,44.63515211592784],[21.992886591481756,44.63273608346683],[21.999239835979445,44.627649763528],[22.004128152865093,44.60825201315537],[22.025314484210124,44.590951872561426],[22.025623639321797,44.56424144944115],[22.037188364976902,44.54187952304937],[22.07070411529561,44.523401529187275],[22.084045456761217,44.49990271669992],[22.13663789434798,44.47081866490251],[22.15863645368771,44.47156475918791],[22.181001474205452,44.480474849834664],[22.193693826618976,44.507918207916376],[22.230244147630856,44.56137447192236],[22.264258825788414,44.595770428897424],[22.274640541417927,44.625895015513706],[22.300274305785095,44.63901426917942],[22.30843223864166,44.65869223241041],[22.333998968287982,44.67612800944054],[22.36623381840127,44.672244593924766],[22.37947447707897,44.674973945708565],[22.395160168391442,44.68204526544295],[22.428731819811556,44.70943991613952],[22.46143044959765,44.71522991185587],[22.48340999932269,44.70821476804691],[22.505380128758343,44.69280744549359],[22.516138463951478,44.680255697207],[22.56286785163621,44.64750336230045],[22.570657776430807,44.6364275220145],[22.62148586382713,44.614640670971234],[22.676323195288475,44.61827816748926],[22.685658894379735,44.60707123740879],[22.71161951331693,44.599714612729784],[22.75997851044505,44.55778748766574],[22.764111809024453,44.54265140550088],[22.759687357835585,44.53761149908413],[22.695569691146737,44.51663494704298],[22.627409257520753,44.55044386092315],[22.587492307402204,44.550206695481435],[22.5642845033423,44.535557081927195],[22.560694957696253,44.5043084757545],[22.54823654274048,44.48125421857709],[22.5214165918714,44.47184680055989],[22.470394637901137,44.48043218160695],[22.458173713225374,44.47184000141877],[22.4691171373307,44.44018334514798],[22.500771706472783,44.41864796522927],[22.50329312294448,44.38119471202425],[22.52720900133408,44.336402051728875],[22.570341595238737,44.302599416126355],[22.61505166025832,44.293478447379016],[22.65420027808323,44.29122201491713],[22.670293154717314,44.28517119365661],[22.68348481441287,44.27289338857208],[22.686215832912975,44.25275376310242],[22.67284013771071,44.23036869938726],[22.67517811664227,44.215659323067776],[22.667615614484355,44.207345681868404],[22.665371336651848,44.21355047285563],[22.652953972069845,44.205000176872396],[22.644803251227405,44.208836962956816],[22.645540245675473,44.198127911497146],[22.63672341393817,44.190503955592014],[22.643112596300757,44.18585361768457],[22.637098527084934,44.181727075462206],[22.628876175350978,44.18336205237252],[22.636158236329724,44.17602829421839],[22.625249013828956,44.1708125301548],[22.61868450760018,44.17293882200998],[22.61302626182314,44.16558635883491],[22.628489121023215,44.15796559433696],[22.62621257486722,44.14732670290385],[22.620372489455647,44.15068167411033],[22.609977572168365,44.10687614218277],[22.61965354165216,44.09775476604578],[22.619782897436842,44.08241038817689],[22.615535672133216,44.07907778763971],[22.624602164294213,44.07283933634104],[22.618917444977747,44.06886176565965],[22.62121032413989,44.06337164117806],[22.58202989856072,44.06204927361249],[22.580650816926624,44.054065824829436],[22.55971414120334,44.057555893866386],[22.534878342478603,44.052218531503335],[22.530580174150057,44.04829442197175],[22.54194624838258,44.042117581114525],[22.537901484097056,44.03818776986912],[22.54347041489344,44.033652453906896],[22.527347841749023,44.019727119290685],[22.442243746311465,44.01659097653041],[22.44119884922247,44.010223248927254],[22.409466446173777,44.004226420097616],[22.40912022620065,43.997241066438335],[22.417235723289444,43.99236902585544],[22.408663927304925,43.98709777640694],[22.413201544958152,43.972165385057615],[22.41142287160571,43.954762121148036],[22.40617470334188,43.94792987379106],[22.408788584500535,43.93972393434173],[22.38835977086401,43.926724242720326],[22.394574149786187,43.909087783959386],[22.38867228868849,43.878889618667394],[22.37956480231427,43.84752806405086],[22.360608286833227,43.8232379887552],[22.357124180297948,43.8094751755703],[22.384036464521408,43.767859502288225],[22.40269625349018,43.75891305619835],[22.398494871273666,43.75051713208458],[22.399953410809445,43.73796523125826],[22.39397968501571,43.72992498262421],[22.402302431847826,43.722878194816374],[22.407834580832517,43.695978933859344],[22.424631893492197,43.67842202032568],[22.439625561521915,43.67383500853654],[22.45220779806974,43.662847652837755],[22.478020770535707,43.65652572463996],[22.491853351428208,43.639179242723216],[22.481836596320818,43.62533042422178],[22.49364514692924,43.60043597995347],[22.48727056535347,43.59109901506409],[22.496643197224714,43.58355444256384],[22.487791302738678,43.56864059576113],[22.490062348143823,43.555929887454475],[22.502785255352588,43.54146624823781],[22.501497008171143,43.52953435171443],[22.50666121090487,43.516287028414375],[22.524046744287524,43.49669848708734],[22.52447955196197,43.48602912721702],[22.532727153812147,43.479204120304395],[22.53330131770107,43.47143171633376],[22.553935635640947,43.461627098053334],[22.575856271552652,43.46388420793792],[22.59777619363632,43.435657154160616],[22.627576684441078,43.428086878349106],[22.638669654269517,43.43341681028598],[22.66113875589507,43.42593968233114],[22.66692312188067,43.402738153925824],[22.678285434044906,43.394726374005266],[22.723122361861062,43.395472519114605],[22.766670449115104,43.37740630432737],[22.769945859896225,43.3636137068171],[22.7853760052115,43.354902776293194],[22.795077164542562,43.34263237279778],[22.827710737427456,43.32887639641073],[22.83102290891403,43.31231044963648],[22.845466811775758,43.29671913322064],[22.842309673730757,43.28640120630791],[22.848569658840923,43.27545593429194],[22.868975096088768,43.26740266570418],[22.870505096788452,43.25463319893412],[22.896331757202358,43.226912874716334],[22.920051685204424,43.21871310113597],[22.941218725335155,43.202484994786126],[22.957876939933275,43.20690208899297],[22.983009552659254,43.202634389054474],[23.00620223564267,43.19290238168087],[23.006374642127685,43.18713861261896],[22.986398971836383,43.16667304889348],[22.99740821085465,43.15584417135514],[22.993697012453268,43.15063118409018],[22.99507266004814,43.1361488847954],[22.983237089929688,43.111484725764626],[22.95272888659353,43.09241189286426],[22.918435158844005,43.080069393771474],[22.909186524560976,43.05577776124937],[22.899781585301476,43.04827770057255],[22.898395136888904,43.03621986896321],[22.86253446867055,43.02141560861413],[22.84927331788171,43.004731771715136],[22.783836634210942,42.98163137729431],[22.786654059616765,42.968359074993494],[22.782329003729,42.95045085848928],[22.778824881968017,42.95312019807428],[22.768511089741008,42.947861105184536],[22.772250641386186,42.93588107485818],[22.779935972728236,42.931825172842686],[22.777799833198273,42.92559947853829],[22.76027158225386,42.91114093268909],[22.759670012649536,42.90260433321013],[22.744474012996506,42.88612373485749],[22.71379695501161,42.8869542328696],[22.705243981722344,42.87941492487917],[22.697649866569392,42.88447706185457],[22.678344720776078,42.86534673047612],[22.67364810162349,42.87597388791914],[22.656399113177336,42.88303484941838],[22.64013774018986,42.87804542808561],[22.619540906204737,42.89606030748477],[22.584101780648382,42.89219936430908],[22.572724242549317,42.87562144984888],[22.575427383067357,42.86290888709234],[22.53559779285193,42.88214332576817],[22.520408184757233,42.87572248114399],[22.515487896082977,42.86854550038064],[22.515748122779236,42.856810538106764],[22.50720289567572,42.850604669639665],[22.474492915305788,42.83152881108654],[22.46538190416879,42.833541665606646],[22.439657681772765,42.82328610936042],[22.44089073799089,42.80574980810991],[22.455905392185464,42.793096101369514],[22.46002092921214,42.777706210404475],[22.476296565757277,42.76734142499875],[22.487106873180174,42.748799262592435],[22.501336588629542,42.73976919285602],[22.495912147120837,42.73211806080147],[22.496621773783783,42.72260269604085],[22.48650928430483,42.72153083680756],[22.47565846753054,42.710184845937135],[22.4721580122212,42.695098311841285],[22.4585524105062,42.68963054191708],[22.460549016172727,42.683662370421494],[22.47595381285302,42.67573918049671],[22.472699713516132,42.66692761283056],[22.458729186794457,42.65509602781221],[22.461454877162723,42.64852043587165],[22.453913931471593,42.64652481148722],[22.467616389702044,42.64079116203907],[22.464889638459514,42.63253833691126],[22.458352882463238,42.631240957467774],[22.449789815579674,42.59518807272477],[22.440569020514765,42.588540589451114],[22.439076700281966,42.5655093732051],[22.47102347461762,42.56194249015477],[22.492171984190023,42.54624852502661],[22.49894314331311,42.535479498494574],[22.52447535729909,42.525107158885106],[22.547592192510262,42.507077458073695],[22.559238954748444,42.480309426032655],[22.543608758942636,42.463131247747256],[22.54047698193384,42.454048415107586],[22.54391587987559,42.4487044249962],[22.535313292813466,42.42118998936215],[22.52296431464819,42.412799986296186],[22.521142172572965,42.39780886910862],[22.477966401896477,42.39414610635965],[22.480590267492463,42.38025396046914],[22.469270908701187,42.37601550624744],[22.459533577946527,42.36201299975783],[22.46325604945158,42.34489288505523],[22.453245460108903,42.33193193977308],[22.432276579278877,42.322943488650104],[22.42385692550285,42.333652204694836],[22.415735741035395,42.32929168981649],[22.40376908833906,42.33259808804427],[22.401272438916255,42.32632728351213],[22.36582715995442,42.32396124243338],[22.360219413578413,42.31109610730762],[22.356533106886214,42.31140361827893],[22.350783354465186,42.317986881656886],[22.333303217815434,42.32123488657437],[22.32258167854044,42.33409416090553],[22.31434487596056,42.3327297047998],[22.292174955784645,42.34965581458896],[22.299055640173652,42.364938966412986],[22.293982696894737,42.37390438498299],[22.272945365602695,42.361288351537226],[22.259916412908904,42.36601716069224],[22.251794212719084,42.3607323968315],[22.249307460179896,42.3495747279337],[22.236170733520172,42.34950673502094],[22.244152530169124,42.3463422251954],[22.229541391320407,42.33565643897225],[22.194769215856798,42.339865519116366],[22.1815258305344,42.33255586160199],[22.181515419050353,42.325300383161576],[22.16649495498371,42.312287594213565],[22.145471796569698,42.32142255910934],[22.132791567295467,42.307251955071045],[22.11895442044898,42.315032644606404],[22.101352960600295,42.30541741298172],[22.074169281243886,42.303364685234996],[22.065584894067854,42.298501488263604],[22.045114729625617,42.30742275726151],[22.031897246560373,42.298126499001626],[21.996988588724403,42.320693303837686],[21.94599340478019,42.34458861364014],[21.933037523851116,42.34064351020436],[21.928303533062994,42.3100124717924],[21.899165702453615,42.30119076083475],[21.892622169378935,42.30070194044578],[21.883171781116822,42.31334806348552],[21.86887713240608,42.309366223130425],[21.865635854082058,42.317565261628864],[21.851643586337786,42.32580507314474],[21.83809811361366,42.323615981847894],[21.833779512575802,42.32056601255612],[21.835747534885495,42.31151263378962],[21.815313276294702,42.29380692426348],[21.795084571441862,42.298627995471115],[21.78952266422674,42.28457918876589],[21.777863291156983,42.27592863906029],[21.78104218244903,42.27254085946947],[21.775087526436963,42.271471295694596],[21.77969848215618,42.26823496296274],[21.77713166681478,42.26500852134128],[21.772522468155145,42.26825534632589],[21.773201822142198,42.264341849641916],[21.769070493357027,42.2661660622118],[21.756925015535533,42.25693029773681],[21.727328679173418,42.26452961605973],[21.725497379056883,42.25789244453566],[21.71486691518749,42.25443597498493],[21.712272781398163,42.2412768315803],[21.699270822945785,42.23144655647953],[21.684278017472295,42.24213838553472],[21.666171615587615,42.242133425088234],[21.65779293864873,42.248923833114404],[21.62812189524034,42.25105161836204],[21.612832033907214,42.25714020093009],[21.600917369362758,42.25427816921583],[21.586968891151212,42.26279769478555],[21.569072520130835,42.250737401082425],[21.544918148980496,42.253608680748414],[21.53600538117222,42.247694672448674],[21.52062244645281,42.247243888237364],[21.520234624301867,42.26055249821386],[21.511121794600328,42.26592485651982],[21.511139468572253,42.27032375771027],[21.470804696224647,42.280010117867754],[21.44828736979693,42.279026758143274],[21.43999303483558,42.274191598830996],[21.440390489433998,42.26231179410081],[21.43245876177026,42.25925074723674],[21.443557419490404,42.24126844960945],[21.442925983765992,42.23339222228144],[21.431294241810075,42.23536651225041],[21.416782184143234,42.245956330204905],[21.38510928621621,42.246462858222976],[21.382161774409138,42.24459060014723],[21.3856737544288,42.241435934891534],[21.375344493265555,42.23594009169343],[21.37129670948338,42.22423815946803],[21.358385392315157,42.2207504721492],[21.345807915713568,42.20477483442482],[21.335048152500452,42.20743056001956],[21.331064221705194,42.199059942167096],[21.335212079507528,42.19030681124562],[21.326933917857616,42.17614165080925],[21.31728778769899,42.170141774644634],[21.32100162198058,42.16072392212512],[21.302395501489624,42.141299354775576],[21.30659296900723,42.133990779826505],[21.303386014248083,42.132370042712665],[21.321509315565194,42.10805319730431],[21.30352954133225,42.1044506011827],[21.294689030472444,42.11198932838374],[21.292348595480856,42.1057643202891],[21.272600396594523,42.095903362446165],[21.248939873526325,42.090752439698015],[21.23360716863342,42.098275968541515],[21.222561549962034,42.09378483261462],[21.212572340254876,42.110935848227605],[21.216838014708276,42.12394600949662],[21.214530298643695,42.132735534824256],[21.180605799642297,42.166733505264915],[21.162726315488197,42.196300892755374],[21.125365482481424,42.20217849097919],[21.119108706242738,42.20680281306562],[21.103773745349034,42.2058685601287],[21.091313619879227,42.19418552542168],[21.061485441924358,42.18139914235882],[21.049341343237007,42.166223501397425],[21.043253781320573,42.1660741432707],[21.02643854669237,42.15222989935031],[20.969365673781734,42.13642308444687],[20.94482486339835,42.138070833821764],[20.927940628479668,42.12730203163104],[20.920008692443506,42.12856482982218],[20.91450115283072,42.1153555434551],[20.89154808536437,42.09742107082674],[20.843225248748034,42.09859882587903],[20.834150183859624,42.08594853383267],[20.792793060812826,42.08363063226027],[20.784645389845195,42.07887117047866],[20.785987763662867,42.07172497076614],[20.758185329993545,42.053403414069486],[20.765065951688133,42.04528750792535],[20.763550351082095,42.04080657305759],[20.74815524332621,42.02567731718631],[20.751907456862543,42.01525180335295],[20.748768660547352,41.982359665386014],[20.767137756732833,41.96216680512598],[20.766037276201416,41.95360825924575],[20.754815875967214,41.946709135376636],[20.7765381525652,41.918481017655544],[20.755678746771313,41.906032865669744],[20.749724504557463,41.89474416168001],[20.740479788398606,41.89270569612524],[20.727973799406303,41.86424873959904],[20.705932663549824,41.864633986689974],[20.6835111171527,41.857706365600414],[20.682230003296944,41.86546962894652],[20.67342085764916,41.87243780708925],[20.654189159463456,41.87554843998111],[20.622380043662766,41.852445496926165],[20.594383583455485,41.87607640931112],[20.575768568521735,41.91748870326424],[20.58553379942356,41.917560095630094],[20.590133232901703,41.92669052093479],[20.61943385282009,41.939375390534764],[20.62658079559529,41.96095435812982],[20.624254437496983,41.97429830869276],[20.61182010322009,41.985386019749726],[20.59729662519288,42.01967507536198],[20.59455120515992,42.042758845808656],[20.56981319356434,42.059031303715415],[20.554580831470563,42.08256173504125],[20.567519740959604,42.097827931861545],[20.560937555267707,42.10860922842817],[20.568117520249128,42.12118928999601],[20.55539561619143,42.1400095535106],[20.558745531598596,42.14619833925296],[20.543072263324373,42.16063632825996],[20.547084500019253,42.16470039502819],[20.531481644804625,42.18591776704223],[20.52415301474491,42.21042876193885],[20.51398284261421,42.224273748587706],[20.5021442057529,42.22810510960862],[20.496386360789575,42.241176591043455],[20.45639190443436,42.27222806260964],[20.404689017639317,42.28466469100459],[20.394757255261897,42.298610322786686],[20.35337500205955,42.30961392391627],[20.353904307616624,42.31718877695538],[20.339127916387167,42.327683870870466],[20.32721261256823,42.32770485366235],[20.305508337571965,42.31490017725819],[20.292688907373364,42.32343995876507],[20.25724628539894,42.318771954875416],[20.242589741672464,42.326933745953596],[20.247838644515074,42.33314234946668],[20.236049068227548,42.34731453441715],[20.244794467077046,42.352956260903774],[20.245180374031783,42.36998382297369],[20.240070128435264,42.38009320540935],[20.207991823797137,42.40159552091158],[20.213994692831378,42.40968922729644],[20.226080790133423,42.41438565109135],[20.220615008301632,42.43368424541603],[20.192974084232635,42.452449396468616],[20.19678930196779,42.46244281121699],[20.18243382867421,42.47298819198377],[20.180260928328288,42.48656564877368],[20.16733271266815,42.49574051792654],[20.165033892177085,42.50666692564517],[20.100200046975928,42.53256773711393],[20.088294927454918,42.55065673838387],[20.07625968119506,42.555811680290525],[20.08847479970758,42.576036822897606],[20.086156157470032,42.58743933710514],[20.072801354541607,42.606888263129925],[20.075724057945283,42.620892327196366],[20.089925677777327,42.63090071650927],[20.09700816442771,42.64260869046784],[20.108691302055234,42.647819151938236],[20.111933299955666,42.65539773470507],[20.08856493657802,42.66870524768326],[20.083379667160496,42.680027331321554],[20.054474479003872,42.684686257847645],[20.045060056086133,42.69546949438983],[20.03321683903573,42.697428477770636],[20.03378031698088,42.7114563339122],[20.015891602785278,42.709720883822094],[20.03218165770749,42.72011399416152],[20.01457296878898,42.72938598064036],[20.01427642258906,42.74079308001374],[20.023278264792395,42.75180682873431],[20.024643713339046,42.765138373106204],[20.06037093483406,42.779059332477985],[20.06994202344006,42.774891439964605],[20.09817518250095,42.77670712682253],[20.11497521046691,42.76386083450741],[20.146739202813766,42.75460834143417],[20.154970773664548,42.768410149685714],[20.19115930489982,42.74528184602749],[20.195728991501536,42.750406875293145],[20.212810604866192,42.746191994681084],[20.221690556872794,42.75260104816174],[20.250427005867202,42.759165178314916],[20.266345460023476,42.77932806579257],[20.262768803140794,42.80416913042353],[20.252352005926106,42.810737713097815],[20.25494682060188,42.8143695176147],[20.273751351450244,42.819934978241825],[20.281124990385067,42.830678772500235],[20.293871635885946,42.825524177961086],[20.29799608976131,42.83619994073171],[20.315554500603646,42.83604393797526],[20.32007749644886,42.82619456555757],[20.335082228411647,42.83585555825338],[20.352915870530456,42.83337153259908],[20.342079918335475,42.86920072996372],[20.350029309779032,42.89595888507014],[20.34582179069329,42.910928342017485],[20.336306353886126,42.90770301435792],[20.32947172298531,42.91374067173664],[20.31022348479854,42.91742869428378],[20.311285632212154,42.92340459444327],[20.29879054638754,42.92186854075023],[20.284043434659278,42.92727850483698],[20.277666495444436,42.93529476855863],[20.269938340111743,42.931696325002946],[20.229101256240472,42.94440974647626],[20.21020712670334,42.95836610346479],[20.188533862972424,42.96022974471677],[20.173913803683348,42.97230211687436],[20.15337049215618,42.974372919297764],[20.14882662762244,42.988887174159736],[20.13127284333891,42.96911761398301],[20.117516962761876,42.96540864188607],[20.102846815195342,42.97446416559642],[20.10223793034224,42.981765019668444],[20.08671925242429,42.99556732655558],[20.07380200288503,42.99646909769777],[20.063941072271795,43.00682595765073],[20.054129442289593,43.009458033880534],[20.056357514322055,43.01765153871736],[20.04466468227182,43.02861646215815],[19.992147605589384,43.05180640093007],[19.96744908314225,43.087191359729445],[19.97352223210073,43.10367316662289],[19.96986398329079,43.112848144735366],[19.94995216823958,43.10247800736212],[19.921984182332515,43.0959112393044],[19.916638493778297,43.085959817222204],[19.906866875676542,43.090948672282224],[19.90296310543027,43.0992510022373],[19.8875268246692,43.09736308004787],[19.869920940068493,43.113116662125954],[19.83868642930212,43.094041937719894],[19.8338309007172,43.09611895274635],[19.833183230339895,43.10728647099646],[19.84034570207827,43.11195095289102],[19.837099331585602,43.11565319250494],[19.81145007037596,43.11548104463568],[19.805002552897054,43.12232538174527],[19.78783679412796,43.126049169513536],[19.7870832919371,43.13373750498749],[19.776870600079917,43.137901329074055],[19.781054765543857,43.143443687718054],[19.779662664148546,43.1563221655805],[19.770257570228893,43.16552870834469],[19.74084855520453,43.15903738026511],[19.733593338007324,43.171211729509366],[19.68492647481947,43.16799646592528],[19.670898072933188,43.183830455170416],[19.640658282911296,43.18898462617741],[19.636912826900975,43.200375712055475],[19.639850119560187,43.207146594955816],[19.61811993718817,43.23054097303025],[19.5448468945566,43.24756228876845],[19.542841440186894,43.26094418441412],[19.527245128289245,43.27933820872296],[19.53766039197408,43.30422128879679],[19.53556375472066,43.30909600141194],[19.521372652235257,43.320941274247836],[19.485244691802826,43.327587196592305],[19.461128567906,43.34481232094339],[19.461879793442623,43.359064535653246],[19.450472455847354,43.36721929113693],[19.44854694233296,43.388107507320136],[19.410359440853174,43.393091810519095],[19.3934969781594,43.40104146290086],[19.382394484296903,43.412688539981104],[19.360435704468593,43.411331041152124],[19.34934452230927,43.415720529948935],[19.33427451964017,43.4366032401623],[19.288165897436738,43.4457971904269],[19.276484924297257,43.45434544768492],[19.25342235410722,43.46138699048936],[19.221431667476725,43.4831727185024],[19.22587006866412,43.48550577319798],[19.22246213868783,43.50311773262853],[19.227497711692596,43.5122152491183],[19.22263235622793,43.52714888590078],[19.250827712984165,43.52939261176657],[19.246209709200897,43.5480694105598],[19.25384632427783,43.57548792385345],[19.245875342603178,43.59270059524454],[19.262689875593637,43.589392917488695],[19.27269542539825,43.596552983203466],[19.26853135619638,43.60194430136556],[19.255512581496852,43.597918506294285],[19.26355572947911,43.606825120977724],[19.266563443753384,43.60520400679932],[19.27302923433192,43.59669995049153],[19.288732043392958,43.59548440018999],[19.291127407022262,43.60013948505375],[19.303949094104663,43.58984055115011],[19.33679355633506,43.58851581647277],[19.356631218314547,43.60565685500282],[19.369362635302775,43.61068553669847],[19.370872735784427,43.60526814041362],[19.381874510566675,43.601614980562424],[19.384804077993852,43.59147567850885],[19.40193478177226,43.58758593354591],[19.399532304641316,43.581286834171124],[19.387862138652846,43.57725065488318],[19.392413343199948,43.573697337707486],[19.40521438637398,43.57726363435275],[19.402518280007687,43.57031875727858],[19.408419671998274,43.56977932635729],[19.422269267761138,43.57531928758268],[19.418112441573268,43.57830024334241],[19.446067745870167,43.581872533286536],[19.480731615340485,43.571719711632014],[19.511010602742015,43.58615876235789],[19.49703325868406,43.59810101339592],[19.491797886332286,43.596474726428994],[19.499514524470317,43.61586272555345],[19.49179790044693,43.619859541353144],[19.488079575098286,43.63245611230423],[19.49869218591319,43.638971007504175],[19.510637231103985,43.62822363147392],[19.51500846138666,43.64046992765778],[19.512343534024662,43.64424991519171],[19.526480550010998,43.64973464264286],[19.53178397085044,43.66777330731967],[19.51706171514561,43.68952327411953],[19.51454041080636,43.70083362938301],[19.5189444944964,43.71435087091301],[19.480942725537314,43.73365495542524],[19.476941562686303,43.747404759619265],[19.467296444535645,43.75382756481239],[19.465360698135086,43.764486551699804],[19.447434048132152,43.77517952119505],[19.431216264823362,43.77685207348203],[19.431388006325506,43.783939404056255],[19.421100275952416,43.79674768921802],[19.41141892498682,43.79394532263581],[19.394520732721272,43.7982814023207],[19.391910039317132,43.80878583789795],[19.37204017322283,43.82459768964464],[19.374672183195642,43.83447497402537],[19.346058967125003,43.852998595052206],[19.335781309143478,43.86965870259881],[19.315634189119443,43.88308770950407],[19.31046874973413,43.89762971265625],[19.283972695514628,43.930996953136194],[19.267130079414127,43.94676076642925],[19.25159259961097,43.95373136521624],[19.255080646816623,43.96294122166215],[19.23645712115216,43.98805978997134],[19.235646957883596,44.01179900814946],[19.247479529449766,44.0142108892001],[19.26700479540535,44.00040338096767],[19.304498937057637,43.99750303135698],[19.334178910390417,43.982630526624334],[19.356542143091808,43.98134483090049],[19.361744405287535,43.97218631435259],[19.38841650602006,43.96031958592179],[19.403430184057736,43.96866984369098],[19.43267685337676,43.95788733880391],[19.52372256693421,43.95581593893079],[19.529036891368786,43.95733796537321],[19.539599536979406,43.97398660117804],[19.566518645694355,43.98424301196535],[19.563894777925128,43.99907743757413],[19.62025871530702,44.015568569601975],[19.62254011049101,44.021171840018525],[19.613829734255994,44.0350103996214],[19.623633375901395,44.050924651093496],[19.6180129531268,44.05396325248402],[19.604467745700802,44.05070166553834],[19.600471899737524,44.06928626098924],[19.590086584475603,44.0722160863557],[19.582112624115485,44.06757901462469],[19.58135819160162,44.048226878238204],[19.57383890958418,44.04665998829262],[19.558059107236563,44.06960705635341],[19.511225545733488,44.08131558592418],[19.49604615308054,44.10044367036501],[19.49308519597743,44.11524532752762],[19.47144263740508,44.119207170459596],[19.47043633399951,44.12796311667793],[19.482067327002518,44.1383973135741],[19.48172947034966,44.14592305654637],[19.466527090667288,44.148797703400824],[19.4487883295712,44.13164139373995],[19.443883738350667,44.13171634456281],[19.419939774793928,44.14408278739768],[19.408288894534316,44.16909474276801],[19.359068780819303,44.18431437792035],[19.355358235878278,44.19849678141723],[19.359818818825033,44.20742146854856],[19.34351597782157,44.21911630015614],[19.34877520136836,44.23174991966307],[19.342348993401956,44.24290311212851],[19.32988011926075,44.25072186308092],[19.325067452982374,44.271329746199235],[19.298060276117795,44.26942369323395],[19.2795169550651,44.27674245040062],[19.252822260609623,44.26320049240625],[19.2392011558283,44.261578686738844],[19.222800344342716,44.26903748936966],[19.217238930124637,44.287112326037125],[19.209619751311447,44.29117283554015],[19.19848391880178,44.2912069726891],[19.1798507460194,44.27982152018989],[19.165354757943856,44.284583853410524],[19.155923275161054,44.303454765536145],[19.13150166481512,44.318130297623526],[19.12974917649253,44.32966514608575],[19.136599305721134,44.338851293155685],[19.114104838950677,44.34460453491643],[19.10894518684041,44.356813332987436],[19.11974332932111,44.36738753811183],[19.10651737416853,44.366810497030315],[19.102758065878547,44.3712511517245],[19.109685962867818,44.39700422250097],[19.147071921257144,44.41528365146668],[19.149239806219214,44.43695331328758],[19.14482739046629,44.450672506928576],[19.13627584156287,44.45668491078563],[19.140706894673652,44.47116000453828],[19.13261828534602,44.490864949514076],[19.12304981570145,44.500535747192025],[19.128431963042626,44.519916641741496],[19.14399559677976,44.5269206084353],[19.163145491808017,44.52211007393919],[19.17101405058332,44.52630928330781],[19.19200492882548,44.551689495127434],[19.182323211239165,44.56141187779689],[19.183753730423746,44.57347204446824],[19.20631304735246,44.57690763185959],[19.206702897004153,44.583450330939606],[19.219931154026415,44.59433822855798],[19.2272137610716,44.61081165685276],[19.214939032136673,44.61937723663681],[19.236408049865858,44.62300498085847],[19.257159665049294,44.634790545308704],[19.26634399494173,44.64807832312082],[19.25919770306476,44.657601672806344],[19.279559279249362,44.6587631728496],[19.282703733391862,44.66207478807101],[19.276208145968106,44.668019169063],[19.28108536116218,44.678279822152156],[19.291272921449394,44.682504904571324],[19.288551235680988,44.690885311736885],[19.303800396433413,44.68908071148037],[19.299959854498695,44.69520823950441],[19.308987822525065,44.70573011031274],[19.301124737106104,44.712619763051784],[19.314047488718963,44.720875708897125],[19.3017470935588,44.730950958603195],[19.31205999073796,44.74111881645593],[19.32640069874707,44.74198624826814],[19.3306310600867,44.74796591259382],[19.314993256619246,44.75291826761465],[19.324260577439524,44.75777155349106],[19.32384006766324,44.76377439561022],[19.307423547287108,44.76406071236322],[19.301221363700886,44.769180551411175],[19.305028549197985,44.77334502957139],[19.321991760236276,44.77454992153976],[19.324320099212162,44.78414205201063],[19.317971435613266,44.78554900414436],[19.31075333929886,44.7804535809107],[19.29457039027692,44.785802483216514],[19.304651871780898,44.79431510239387],[19.31732619148645,44.79561087462854],[19.310121214490053,44.80548443106021],[19.312951236436056,44.81253353424583],[19.324098507619865,44.81279317219135],[19.317875003275823,44.821643690453996],[19.32680516957696,44.8228433674321],[19.33336620389534,44.81776758130541],[19.335682300661464,44.82805323168662],[19.353191530973486,44.82639894984346],[19.35549095768188,44.83460803793504],[19.345483889788028,44.839707110353025],[19.345964523072727,44.85249761163214],[19.351942988316278,44.858619369830684],[19.367472457265364,44.856123030592954],[19.359694190433128,44.86657836041708],[19.37084167996925,44.87907098888195],[19.299594912187988,44.90943339892771],[19.27905339207196,44.904309862737826],[19.251160260748645,44.91334086980259],[19.223697687432225,44.897365282163015],[19.21390291366561,44.8963532034681],[19.19662830018107,44.918159151609736],[19.177061971937654,44.92172679708938],[19.146617064687064,44.90346650088914],[19.128827538560547,44.898710228195014],[19.11791584847552,44.886245142092896],[19.088440834073644,44.879597203903145],[19.070295765688783,44.86314909185912],[19.021414716113046,44.85539605903649],[18.99274054499437,44.89398134916315],[18.988898074212244,44.90605938948057],[18.997584061729928,44.91538092312299],[19.030113268007522,44.92255110399303],[19.068595962951434,44.90121490136096],[19.08708914937717,44.9104367610365],[19.080470535369162,44.913395653253545],[19.0874515461639,44.916402259209995],[19.084188400882912,44.91968444835397],[19.08722280491473,44.92548227773537],[19.143094865018877,44.94115253489552],[19.142883019640525,44.94689211462216],[19.15605528968495,44.95301742903504],[19.154202989696262,44.95757740321825],[19.14681815872328,44.95736822575426],[19.147455359195476,44.97549919666871],[19.13869805756511,44.98066737150978],[19.10973369472739,44.96987165533878],[19.086523693233797,44.974360688789744],[19.07497883669005,44.97129062545045],[19.05184975210658,44.97774285279883],[19.09272331464267,44.995134064355],[19.102762462527426,45.01086356222839],[19.097352904806034,45.02452349243164],[19.099107935954784,45.03296459191389],[19.094387829867095,45.03786803014204],[19.105815518932086,45.051432203599354],[19.09528637838651,45.05852739841317],[19.105940652534738,45.07921710134441],[19.092699427960337,45.09087538740437],[19.093364358655244,45.10153220616609],[19.07632399637976,45.11483980952417],[19.077854510561185,45.12772910082056],[19.087672403659067,45.1382940232407],[19.086401354598596,45.14541894144342],[19.141945263799744,45.129720448546564],[19.186997659645684,45.165906797982366],[19.194600079319443,45.17889608125587],[19.16599641453557,45.18973408082865],[19.17137236952362,45.200119929488515],[19.19103639282127,45.20120467763761],[19.227549174104748,45.18463593881978],[19.237753058347685,45.175365708934365],[19.272525490060026,45.17598983845633],[19.287427264694337,45.17062932864173],[19.29650335810839,45.171217371173505],[19.281269699607055,45.19320178288111],[19.289077592080424,45.195399352636],[19.282742085626555,45.20718521583804],[19.31942606664957,45.2076803455032],[19.332381973894176,45.18210100090512],[19.329975172517514,45.17706235447608],[19.347540096470045,45.17250689205037],[19.349420723901744,45.16476703680543],[19.354645344173104,45.16463805873387],[19.354346825187807,45.1690797894818],[19.363736582430462,45.175520276564086],[19.372261466433333,45.1705417649255],[19.38818571888333,45.173187200293874],[19.42518437859729,45.16768326593733],[19.435697753067444,45.17313834459485],[19.427971224554433,45.18755318582797],[19.44727132260979,45.195911196727266],[19.426230599178314,45.219175107211285],[19.42069753197778,45.23342633486661],[19.35490707916628,45.231369812783534],[19.28891115184097,45.23641661572096],[19.254981938041738,45.24354193386485],[19.142072866959033,45.28120023507196],[19.103622941773864,45.29991062449065],[19.097460016582847,45.31349489873893],[19.097482762894245,45.32718082910985],[19.09102466479486,45.33577372404802],[19.073092565482558,45.34166747224066],[19.0275918219066,45.34426826374825],[18.973984486333784,45.37406754760841],[18.969608926972793,45.38436223923027],[18.97576526954226,45.394073244016376],[19.0215040181028,45.40221566428896],[19.030540847271777,45.41279653442407],[19.025124732640464,45.42359684555943],[18.99486210781319,45.441250062439835],[18.989147118558552,45.44946959603552],[18.991695970057354,45.47965787703698],[18.999474226112113,45.49330572812643],[19.00592664002409,45.497164323228134],[19.0464293523194,45.484959729380954],[19.08275388876204,45.48790526485475],[19.099126257843515,45.500220898924994],[19.101102172630547,45.51163024144485],[19.095403681994565,45.51937892538829],[19.069958997118803,45.529985692379434],[19.03315437780712,45.534274738640626],[19.015954738938802,45.553978087724204],[19.006269387960376,45.55463154674982],[18.997627209340887,45.54296078900502],[18.985618672981506,45.5370529659053],[18.951548431882546,45.53287475962576],[18.930951740448958,45.539161664267624],[18.917071017805153,45.55437656479196],[18.888885736100253,45.56626995436007],[18.889529408215715,45.57373401821464],[18.914568730717935,45.59861186093609],[18.899025172583304,45.608756904698666],[18.89917494547221,45.61611154931599],[18.933805151266725,45.631192367093355],[18.939393524226393,45.64271657452075],[18.964642529089076,45.661270048144424],[18.966156720983484,45.67070570089002],[18.92701516111921,45.69009570836869],[18.906156314458098,45.70762407282441],[18.888492292453034,45.77585448336639],[18.85026557837496,45.79542737274754],[18.847141683315282,45.8102785241755],[18.859429464496333,45.84353495537124],[18.855252295560486,45.85910460620739],[18.832807780980353,45.86868937314739],[18.82764806136705,45.8968538026334],[18.814994459822024,45.90941447373798],[18.821637480226762,45.91464917910963],[18.827558818342414,45.90479132488002],[18.868216294307647,45.91124825787942],[18.86462830885597,45.92074948636201],[18.879145711590677,45.91643755633091],[18.906015802861248,45.9352714358083],[18.962023088678976,45.92586809587192],[18.987958898642432,45.93221046802544],[18.994702732768022,45.923885387154556],[19.008850288357948,45.92329711653018],[18.997874764072982,45.946206191903585],[19.005819495101104,45.958707078446224],[19.03267761423999,45.9646532899411],[19.079556793574486,45.96353263317487],[19.065684318411684,46.00004674901742],[19.104582600462784,46.03998858077364],[19.133799230370972,46.03707607568727],[19.147205791942078,46.007972822751114],[19.147741597275296,45.99611894386807],[19.204918113867485,45.99268150322367],[19.199563774591578,45.99817143888844],[19.285345154146217,45.996760155475634],[19.296535417756893,45.987794298903125],[19.302710755679136,45.99155136329713],[19.281630095707417,46.0145341058301],[19.364166172115414,46.052174016781294],[19.38018614096882,46.03580242907032],[19.415441220595127,46.04571793666883],[19.439164703370817,46.06675570546023],[19.466530925211536,46.08164999062335],[19.464427524219573,46.095278160555935],[19.527065724560906,46.12093806174359],[19.502455216977115,46.14208766249215],[19.516752137443532,46.15173776908812],[19.526566953712205,46.14769481708752],[19.560446616099398,46.16629999985232],[19.563147356285942,46.176983068013264],[19.631599935805248,46.1692436389731],[19.661539457681148,46.19005677333858]]]}}]}